HST                     
1 20580U 90037B   26102.47518800  .00004743  00000+0  15092-3 0  9995
2 20580  28.4729 169.4314 0002324 134.0178 226.0609 15.30030697778496
POLAR                   
1 23802U 96013A   26101.79772914  .00000125  00000+0  00000+0 0  9996
2 23802  79.7887 227.8175 6403693 211.3485  85.9219  1.29845750143991
SWAS                    
1 25560U 98071A   26102.20867960  .00002978  00000+0  19352-3 0  9990
2 25560  69.8972  37.6040 0006519 327.0533  33.0224 15.09168739487311
CXO                     
1 25867U 99040B   26103.26452838  .00000981  00000+0  00000+0 0  9996
2 25867  55.0979 118.6093 7944075 310.5417   0.3347  0.37801723 17084
XMM-NEWTON              
1 25989U 99066A   26103.52598896  .00000150  00000+0  00000+0 0  9991
2 25989  64.8180 283.8164 4697232  66.0541   0.0710  0.50126771 22684
TERRA                   
1 25994U 99068A   26102.48824376  .00000259  00000+0  61859-4 0  9992
2 25994  97.9525 154.6197 0003638  83.1751  28.3175 14.61051439400011
CLUSTER II-FM7 (SAMBA)  
1 26410U 00041A   26103.42847287  .00002693  00000+0  00000+0 0  9990
2 26410 149.4965  39.9054 8971645 256.3507   0.6187  0.44801462 20015
CLUSTER II-FM8 (TANGO)  
1 26464U 00045B   26103.11840083  .00002859  00000+0  00000+0 0  9990
2 26464 149.7864  40.8692 8977423 257.1551   0.5558  0.44408984 20015
ODIN                    
1 26702U 01007A   26102.52382847  .00034941  00000+0  39917-3 0  9997
2 26702  97.4004 140.0307 0003780  69.7560 290.4104 15.62108460379113
TIMED                   
1 26998U 01055B   26102.43776852  .00001057  00000+0  99896-4 0  9995
2 26998  74.0699   7.3908 0002341 230.9769 129.1208 14.95143533320998
CORIOLIS                
1 27640U 03001A   26102.45296772  .00000095  00000+0  64975-4 0  9994
2 27640  98.7152 110.3365 0014814  45.8811 314.3581 14.19926164204898
SORCE                   
1 27651U 03004A   26101.98313631  .00002443  00000+0  18710-3 0  9994
2 27651  39.9907 279.2907 0018483 295.3121  64.5759 15.03357469261933
MOST                    
1 27843U 03031D   26102.46045551  .00000056  00000+0  45837-4 0  9993
2 27843  98.7072 111.0983 0010996  83.3433 276.8996 14.21308720181376
SCISAT 1                
1 27858U 03036A   26102.51767779  .00000410  00000+0  57188-4 0  9999
2 27858  73.9289 301.8144 0006813  11.6689 348.4644 14.81372740221724
SWIFT                   
1 28485U 04047A   26102.28956309  .00035032  00000+0  36515-3 0  9990
2 28485  20.5543 330.8882 0002602  96.7651 263.3090 15.62583881176525
HINODE (SOLAR-B)        
1 29479U 06041A   26102.50410029  .00000444  00000+0  84742-4 0  9994
2 29479  98.0594 119.6175 0018580 133.5322 226.7430 14.68530446 45238
SHIJIAN-6 02A (SJ-6 02A)
1 29505U 06046A   26102.50675833  .00005161  00000+0  27053-3 0  9997
2 29505  97.6445 143.0958 0003569  35.0245 325.1222 15.16221668 62317
SHIJIAN-6 02B (SJ-6 02B)
1 29506U 06046B   26102.49459385  .00002158  00000+0  17282-3 0  9994
2 29506  97.7124 131.9745 0011643 291.0766  68.9213 15.01170940 60889
FGRST (GLAST)           
1 33053U 08029A   26101.95654910  .00002887  00000+0  10358-3 0  9996
2 33053  25.5828 304.2265 0007726 265.3614  94.6041 15.23593734985724
SDO                     
1 36395U 10005A   26102.41844347 -.00000038  00000+0  00000+0 0  9998
2 36395  34.5141  87.3349 0000480  33.1705 128.9991  1.00273674 59408
CRYOSAT 2               
1 36508U 10013A   26102.46958630  .00000148  00000+0  36119-4 0  9995
2 36508  92.0268 261.3592 0002526  96.0551 264.0944 14.51902065848541
X-SAT                   
1 37389U 11015C   26102.51277609  .00000017  00000+0  24554-4 0  9997
2 37389  98.3473  82.6828 0014014 170.7923 189.3517 14.25186142778324
GCOM-W1 (SHIZUKU)       
1 38337U 12025A   26102.46339816  .00000369  00000+0  91774-4 0  9994
2 38337  98.2094  44.0282 0001132  81.6363  32.3874 14.57147655739463
NUSTAR                  
1 38358U 12031A   26102.58335647  .00015211  00000+0  89897-3 0  9999
2 38358   6.0256 165.9864 0008951 216.4238 114.9387 15.08173087  2393
NEOSSAT                 
1 39089U 13009D   26102.00684874  .00000140  00000+0  63084-4 0  9999
2 39089  98.4165 283.6163 0012209  84.7296 275.5283 14.35803013687240
BRITE-AUSTRIA           
1 39091U 13009F   26102.45623022  .00000136  00000+0  60771-4 0  9994
2 39091  98.3980 283.5226 0011376  78.2771 281.9691 14.36515635687612
IRIS                    
1 39197U 13033A   26102.50421215  .00000793  00000+0  97206-4 0  9996
2 39197  97.9381 301.9756 0024659 170.7382 189.4293 14.85749286690626
HISAKI (SPRINT-A)       
1 39253U 13049A   26102.50739093  .00000119  00000+0  70218-4 0  9998
2 39253  29.7189 193.9286 0136517 204.4250 154.9805 13.55535930622504
CASSIOPE                
1 39265U 13055A   26102.52024788  .00021576 -41501-6  25412-3 0  9992
2 39265  80.9162 146.1897 0304910 282.8621  73.8711 15.21210096657670
STSAT-3                 
1 39422U 13066G   26102.51656473  .00001465  00000+0  11517-3 0  9997
2 39422  97.6173  73.5180 0008173 248.6405 111.3948 15.02386795674344
SWARM B                 
1 39451U 13067A   26102.52732694  .00002528  00000+0  90833-4 0  9991
2 39451  87.7497   2.2447 0002582  79.6267 280.5273 15.28171857673210
SWARM A                 
1 39452U 13067B   26102.50675360  .00008467  00000+0  15253-3 0  9996
2 39452  87.3291  80.6131 0003641  94.1112 266.0564 15.49604247696075
SWARM C                 
1 39453U 13067C   26102.50669308  .00008453  00000+0  15228-3 0  9999
2 39453  87.3291  79.1942 0003665  94.6613 265.5066 15.49602759696039
BRITE-CA1 (TORONTO)     
1 40020U 14033L   26102.33346559  .00000916  00000+0  14490-3 0  9992
2 40020  97.9630 232.5190 0079895 127.2617 233.5912 14.72573741632522
OCO 2                   
1 40059U 14035A   26102.50708345  .00000313  00000+0  79503-4 0  9998
2 40059  98.1973  44.8182 0001626  86.7257 273.4128 14.57135516626485
BRITE-PL2 (HEWELIUSZ)   
1 40119U 14049B   26102.55663009  .00001030  00000+0  10116-3 0  9993
2 40119  97.9015 214.0919 0013294 332.3532  27.6980 14.94354449631643
MMS 1                   
1 40482U 15011A   26102.58335647 -.00000958  00000+0  00000+0 0  9999
2 40482  71.2206 349.6803 8378107 165.9429  86.7675  0.28297240  1319
MMS 2                   
1 40483U 15011B   26102.58335647 -.00000959  00000+0  00000+0 0  9991
2 40483  71.2188 349.6833 8378848 165.9488  86.7522  0.28297087  1319
MMS 3                   
1 40484U 15011C   26102.58335647 -.00000958  00000+0  00000+0 0  9991
2 40484  71.2234 349.6872 8378104 165.9431  86.7565  0.28297226  1310
MMS 4                   
1 40485U 15011D   26102.58335647 -.00000959  00000+0  00000+0 0  9993
2 40485  71.2208 349.6825 8377640 165.9506  86.7434  0.28297216  1311
ASTROSAT                
1 40930U 15052A   26102.09351488  .00001535  00000+0  10549-3 0  9993
2 40930   5.9970 271.0650 0007824 175.3234 184.6967 14.82390876570006
DAMPE                   
1 41173U 15078A   26102.46980868  .00001620  00000+0  57302-4 0  9996
2 41173  97.4586 107.6184 0010874 316.4811  43.5570 15.30623808574497
PISAT                   
1 41784U 16059B   26102.27371677  .00000821  00000+0  14760-3 0  9997
2 41784  97.8192 105.5640 0030347  57.8415 302.5729 14.68862673510061
HXMT (HUIYAN)           
1 42758U 17034A   26102.53984350  .00003289  00000+0  16915-3 0  9995
2 42758  43.0135 188.4151 0030314  88.6524 271.7796 15.17913983487685
FLYING LAPTOP           
1 42831U 17042G   26102.51827207  .00002387  00000+0  19205-3 0  9994
2 42831  97.4393 260.7156 0019272 349.3459  10.7354 15.00748136476608
ZHANGHENG 1-01 (CSES-1) 
1 43194U 18015C   26102.53996530  .00006095  00000+0  27611-3 0  9996
2 43194  97.6809 266.9142 0018984 122.1418 238.1663 15.21093514454666
SALSAT                  
1 46495U 20068K   26102.51818653  .00005176  00000+0  18740-3 0  9993
2 46495  97.8866 101.6365 0010430 162.8962 197.2630 15.28846175305326
IXPE                    
1 49954U 21121A   26102.50001156  .00008457  00000+0  45451-3 0  9992
2 49954   0.2303  93.5633 0007570 168.4611 293.9573 15.09652695  6075
